[{"OBJECT_NAME":"STARLINK-30566","OBJECT_ID":"2023-158D","EPOCH":"2026-03-09T05:48:32.446944","MEAN_MOTION":15.26649023,"ECCENTRICITY":6.671e-5,"INCLINATION":42.9973,"RA_OF_ASC_NODE":29.3979,"ARG_OF_PERICENTER":266.2017,"MEAN_ANOMALY":93.8758,"EPHEMERIS_TYPE":0,"CLASSIFICATION_TYPE":"U","NORAD_CAT_ID":58054,"ELEMENT_SET_NO":999,"REV_AT_EPOCH":13350,"BSTAR":-0.0066933985,"MEAN_MOTION_DOT":-0.00175118,"MEAN_MOTION_DDOT":0},{"OBJECT_NAME":"SIMSAT 1","OBJECT_ID":"2000-026A","EPOCH":"2026-03-09T17:22:54.646176","MEAN_MOTION":15.27666538,"ECCENTRICITY":0.00084816,"INCLINATION":86.3501,"RA_OF_ASC_NODE":180.5413,"ARG_OF_PERICENTER":14.8337,"MEAN_ANOMALY":345.3157,"EPHEMERIS_TYPE":0,"CLASSIFICATION_TYPE":"U","NORAD_CAT_ID":26365,"ELEMENT_SET_NO":999,"REV_AT_EPOCH":42720,"BSTAR":0.00013499313,"MEAN_MOTION_DOT":3.69e-5,"MEAN_MOTION_DDOT":0}]
